ONEWEB-0522             
1 54140U 22138AD  26165.64052779  .00000071  00000+0  14573-3 0  9990
2 54140  87.9178 305.4642 0001713  97.7258 262.4069 13.19724869176474
ONEWEB-0523             
1 54141U 22138AE  26165.60510303  .00000033  00000+0  48754-4 0  9996
2 54141  87.9194 274.9548 0002793  99.9468 260.1981 13.20771348178964
ONEWEB-0524             
1 54142U 22138AF  26165.59500575  .00000005  00000+0 -19632-4 0  9998
2 54142  87.9194 274.9539 0002553 117.7677 242.3716 13.20771275178967
ONEWEB-0525             
1 54143U 22138AG  26165.65947460  .00000088  00000+0  18823-3 0  9994
2 54143  87.9174 305.4681 0001532 105.3084 254.8218 13.19725426176491
ONEWEB-0526             
1 54144U 22138AH  26165.61682953  .00000026  00000+0  32382-4 0  9993
2 54144  87.9176 305.4770 0001764 102.1058 258.0272 13.19726288176466
ONEWEB-0529             
1 54145U 22138AJ  26165.61998831 -.00000052  00000+0 -16145-3 0  9998
2 54145  87.9167 305.4857 0001620 101.3665 258.7650 13.19724630176487
ONEWEB-0531             
1 54146U 22138AK  26165.58154637  .00000075  00000+0  15224-3 0  9993
2 54146  87.9192 274.9544 0002821 105.5590 254.5855 13.20772277178964
ONEWEB-0535             
1 54147U 22138AL  26165.42570603  .00000020  00000+0  18673-4 0  9994
2 54147  87.9175 305.5085 0002178  95.9147 264.2234 13.19724986176477
ONEWEB-0536             
1 54148U 22138AM  26165.34079846  .00000051  00000+0  94424-4 0  9991
2 54148  87.9181 275.0252 0002932 109.5782 250.5669 13.20771481178923
ONEWEB-0527             
1 54642U 22166A   26165.45154535  .00001826  00000+0  43889-2 0  9990
2 54642  87.9255 244.5415 0001900 100.6796 259.4552 13.21813211171175
ONEWEB-0528             
1 54643U 22166B   26165.45239134  .00000103  00000+0  21869-3 0  9992
2 54643  87.9255 244.5437 0001859 102.9853 257.1489 13.21824899171181
ONEWEB-0539             
1 54644U 22166C   26165.49026174  .00000089  00000+0  18392-3 0  9995
2 54644  87.9261 244.5078 0001996  92.7217 267.4146 13.21826870171187
ONEWEB-0540             
1 54645U 22166D   26165.27003506  .00000029  00000+0  38290-4 0  9990
2 54645  87.9253 244.5820 0002047  95.5110 264.6258 13.21826856171148
ONEWEB-0542             
1 54646U 22166E   26165.57604153  .00000036  00000+0  56572-4 0  9990
2 54646  87.9263 244.4893 0002041  90.1630 269.9738 13.21828126171199
ONEWEB-0545             
1 54647U 22166F   26165.46501524  .00000119  00000+0  25611-3 0  9998
2 54647  87.9254 244.5233 0002205  85.6408 274.4977 13.21828351171144
ONEWEB-0580             
1 54648U 22166G   26165.51547920  .00000030  00000+0  40438-4 0  9992
2 54648  87.9255 244.5131 0002274  89.6598 270.4796 13.21827994171195
ONEWEB-0582             
1 54649U 22166H   26165.48185233  .00000055  00000+0  10086-3 0  9996
2 54649  87.9256 244.5126 0002210  87.8002 272.3385 13.21826584171167
ONEWEB-0583             
1 54650U 22166J   26165.26652824  .00000060  00000+0  11257-3 0  9996
2 54650  87.9252 244.5787 0002060  95.6209 264.5160 13.21827844171149
ONEWEB-0584             
1 54651U 22166K   26165.51380194  .00000105  00000+0  22330-3 0  9997
2 54651  87.9252 244.5149 0002126  96.3513 263.7863 13.21826089171164
ONEWEB-0585             
1 54652U 22166L   26165.23457841  .00000141  00000+0  30911-3 0  9995
2 54652  87.9256 244.5573 0002002 103.2895 256.8462 13.21826943171138
ONEWEB-0586             
1 54653U 22166M   26165.47510718  .00000168  00000+0  37580-3 0  9993
2 54653  87.9255 244.5352 0002017  93.9484 266.1881 13.21824222171168
ONEWEB-0587             
1 54654U 22166N   26165.48519933  .00000133  00000+0  29158-3 0  9997
2 54654  87.9266 244.5064 0002009 108.8316 251.3036 13.21824178171328
ONEWEB-0589             
1 54655U 22166P   26165.47174432  .00000115  00000+0  24793-3 0  9998
2 54655  87.9253 244.5217 0002509  80.2274 279.9144 13.21824590171184
ONEWEB-0590             
1 54656U 22166Q   26165.26976122  .00000002  00000+0 -26541-4 0  9992
2 54656  87.9262 244.5518 0002495 101.5348 258.6066 13.21827228171146
ONEWEB-0591             
1 54657U 22166R   26165.58446688 -.00000091  00000+0 -25074-3 0  9995
2 54657  87.9254 244.5039 0002072  98.6562 261.4807 13.21826626171215
ONEWEB-0592             
1 54658U 22166S   26165.51212148  .00000102  00000+0  21541-3 0  9997
2 54658  87.9263 244.4963 0002034  98.2609 261.8756 13.21828243171086
ONEWEB-0593             
1 54659U 22166T   26165.45828103 -.00000026  00000+0 -95161-4 0  9992
2 54659  87.9254 244.5189 0001933  94.4830 265.6525 13.21825589171186
ONEWEB-0594             
1 54660U 22166U   26165.47848901  .00001015  00000+0  24264-2 0  9995
2 54660  87.9255 244.5312 0001916 102.4344 257.7004 13.21822197171207
ONEWEB-0595             
1 54661U 22166V   26165.45492596  .00000051  00000+0  92085-4 0  9996
2 54661  87.9262 244.5163 0002098 105.5743 254.5622 13.21827577171173
ONEWEB-0596             
1 54662U 22166W   26165.58109672  .00000092  00000+0  19037-3 0  9991
2 54662  87.9257 244.5028 0002055 101.6751 258.4613 13.21827339171198
